[{"OBJECT_NAME":"SHIYAN-27 D","OBJECT_ID":"2025-078D","EPOCH":"2026-03-09T23:58:15.771360","MEAN_MOTION":13.57239148,"ECCENTRICITY":7.472e-5,"INCLINATION":99.6973,"RA_OF_ASC_NODE":77.6907,"ARG_OF_PERICENTER":97.3324,"MEAN_ANOMALY":262.7899,"EPHEMERIS_TYPE":0,"CLASSIFICATION_TYPE":"U","NORAD_CAT_ID":63602,"ELEMENT_SET_NO":999,"REV_AT_EPOCH":4407,"BSTAR":0.00011133283,"MEAN_MOTION_DOT":3.5e-7,"MEAN_MOTION_DDOT":0},{"OBJECT_NAME":"DELTA 1 DEB","OBJECT_ID":"1976-077EY","EPOCH":"2026-03-09T20:10:47.438112","MEAN_MOTION":13.98707035,"ECCENTRICITY":0.02049043,"INCLINATION":102.902,"RA_OF_ASC_NODE":269.2472,"ARG_OF_PERICENTER":224.3776,"MEAN_ANOMALY":258.7064,"EPHEMERIS_TYPE":0,"CLASSIFICATION_TYPE":"U","NORAD_CAT_ID":18232,"ELEMENT_SET_NO":999,"REV_AT_EPOCH":1413,"BSTAR":0.013576469,"MEAN_MOTION_DOT":0.00023369,"MEAN_MOTION_DDOT":0}]
